[{"OBJECT_NAME":"COSMOS 2588","OBJECT_ID":"2025-109A","EPOCH":"2026-03-09T19:28:59.107008","MEAN_MOTION":15.29122656,"ECCENTRICITY":0.0005019,"INCLINATION":72.9704,"RA_OF_ASC_NODE":73.5401,"ARG_OF_PERICENTER":308.678,"MEAN_ANOMALY":51.3966,"EPHEMERIS_TYPE":0,"CLASSIFICATION_TYPE":"U","NORAD_CAT_ID":64095,"ELEMENT_SET_NO":999,"REV_AT_EPOCH":4442,"BSTAR":0.00032611,"MEAN_MOTION_DOT":9.169e-5,"MEAN_MOTION_DDOT":0},{"OBJECT_NAME":"STARLINK-34236","OBJECT_ID":"2025-144V","EPOCH":"2026-03-09T13:42:59.202720","MEAN_MOTION":15.30196896,"ECCENTRICITY":0.0001155,"INCLINATION":53.16,"RA_OF_ASC_NODE":181.5955,"ARG_OF_PERICENTER":78.1403,"MEAN_ANOMALY":281.9727,"EPHEMERIS_TYPE":0,"CLASSIFICATION_TYPE":"U","NORAD_CAT_ID":64743,"ELEMENT_SET_NO":999,"REV_AT_EPOCH":3969,"BSTAR":0.00070619,"MEAN_MOTION_DOT":0.00020612,"MEAN_MOTION_DDOT":0}]
